SHIYAN-1 (SY-1)         
1 28220U 04012A   26068.73650539  .00016393  00000+0  54854-3 0  9991
2 28220  97.8764 140.5238 0005873  23.6952 336.4557 15.31043463195862
STARLINK-36485          
1 67312U 26002H   26068.03819997  .00047246  00000+0  17153-2 0  9998
2 67312  43.0020 328.5703 0001813 280.2114  79.8533 15.27581687 10982
